IRIDIUM 136             
1 42962U 17061H   23352.65808720  .00000318  00000+0  10636-3 0  9999
2 42962  86.3975  46.1810 0002272 100.0428 260.1024 14.34217503324184
